STARLINK-1465
1 15731C 20038B   21326.15001390  .00005427  00000-0  36365-3 0  3264
2 15731  53.0543  78.0753 0001073  65.2848 341.0378 15.06389380    16
